{"type":"FeatureCollection","features":[{"type":"Feature","properties":{"name":"安定區","area_km2":31.91},"geometry":{"type":"Polygon","coordinates":[[[120.2500946,23.1336092],[120.2498476,23.1334997],[120.2489709,23.1329664],[120.2474462,23.1323047],[120.2467332,23.1318856],[120.2463511,23.1317394],[120.2458083,23.1316174],[120.2451322,23.1315275],[120.24366,23.1309789],[120.2431832,23.1308683],[120.2420347,23.1306706],[120.2416907,23.1307879],[120.2415283,23.1307183],[120.2411445,23.1305275],[120.2399318,23.1299825],[120.2392119,23.1296055],[120.2384696,23.129103],[120.2383387,23.1290129],[120.2377377,23.1288124],[120.23662,23.1284399],[120.2358364,23.1284142],[120.2346674,23.1284913],[120.2336461,23.1279838],[120.2331065,23.1277397],[120.231642,23.1270782],[120.2308712,23.1266414],[120.2304537,23.1263652],[120.2293618,23.1255751],[120.2290992,23.125322],[120.2271648,23.1238269],[120.2263169,23.1231715],[120.2217933,23.1197656],[120.2192192,23.1173494],[120.2172092,23.1157947],[120.2169775,23.1155965],[120.2164898,23.1153014],[120.2152894,23.1146709],[120.2143751,23.1141437],[120.213046,23.1133147],[120.2118005,23.1125327],[120.2112306,23.1121583],[120.2111542,23.1121081],[120.2109715,23.1119758],[120.2102526,23.11151],[120.2095589,23.1111176],[120.2090257,23.1108221],[120.2081072,23.1107643],[120.2064564,23.1096274],[120.2047672,23.1085101],[120.2027614,23.1071833],[120.2028,23.1064721],[120.2030015,23.1002541],[120.2030625,23.0999137],[120.2010118,23.0985953],[120.2008786,23.0982308],[120.2002668,23.0969542],[120.1999054,23.0963279],[120.1993739,23.0955122],[120.1983552,23.0940736],[120.1980595,23.0935307],[120.1978504,23.0933007],[120.1971463,23.0926019],[120.1960317,23.0914957],[120.1925278,23.0881734],[120.1873947,23.0831284],[120.1878667,23.0828628],[120.1881283,23.0827608],[120.1886761,23.0825302],[120.1896095,23.0821966],[120.1903392,23.0819313],[120.1909262,23.0817807],[120.1913386,23.0817613],[120.1921111,23.081708],[120.192203,23.0816829],[120.192493,23.0816038],[120.193186,23.0812745],[120.1938165,23.0809647],[120.1943569,23.0807816],[120.1954449,23.0804284],[120.1966422,23.0799709],[120.1975318,23.079594],[120.1982203,23.0793083],[120.1992823,23.0788301],[120.1994611,23.0787494],[120.1996144,23.0787068],[120.2001737,23.0786449],[120.2005888,23.0785209],[120.2013826,23.0782286],[120.2019171,23.0780337],[120.202467,23.0778868],[120.2026797,23.0783477],[120.2038582,23.0783771],[120.2047801,23.0783891],[120.2059997,23.0784307],[120.2071617,23.0785486],[120.2072156,23.0784827],[120.2072855,23.0783869],[120.2073268,23.0783303],[120.2073927,23.0782299],[120.2073452,23.0781832],[120.2068303,23.077734],[120.2055307,23.0766161],[120.2043992,23.0757082],[120.202893,23.0744853],[120.2023996,23.0740864],[120.201464,23.07333],[120.2011895,23.0731104],[120.2008909,23.0728744],[120.2005554,23.0726092],[120.1996937,23.0719405],[120.1996247,23.0718898],[120.1996272,23.0718186],[120.1997601,23.0711554],[120.2000075,23.0708189],[120.2002436,23.0704792],[120.2007671,23.0697461],[120.2011804,23.0691685],[120.2016287,23.068541],[120.2020679,23.0679595],[120.2021173,23.0678681],[120.202117,23.0677809],[120.2020952,23.0677353],[120.202157,23.0677218],[120.2022741,23.0677534],[120.2025016,23.0678662],[120.2026364,23.0679338],[120.2028642,23.0680482],[120.2030763,23.0682025],[120.203432,23.0684925],[120.2037367,23.0687017],[120.2039959,23.0689254],[120.2042547,23.0691295],[120.2043545,23.0692418],[120.2045217,23.0693795],[120.2046466,23.0694317],[120.2047613,23.0694726],[120.2049562,23.0695582],[120.2050421,23.069658],[120.205182,23.069795],[120.2053573,23.0698958],[120.2055122,23.0700417],[120.2056006,23.0700646],[120.2056582,23.0700236],[120.2057649,23.0698751],[120.2060312,23.0694844],[120.2063197,23.06909],[120.2065874,23.0687107],[120.2067114,23.0685597],[120.2068782,23.0686733],[120.2070166,23.068723],[120.2071599,23.0687646],[120.2073473,23.0688457],[120.2076088,23.0689178],[120.207771,23.068904],[120.2079296,23.0688214],[120.2081057,23.0687749],[120.2083153,23.0686944],[120.208572,23.0686215],[120.2087483,23.0685621],[120.2089918,23.0685203],[120.2091144,23.0685201],[120.2093581,23.0685932],[120.2096208,23.0686926],[120.2098141,23.068795],[120.2100967,23.0689033],[120.2102988,23.0690113],[120.2105119,23.0691101],[120.210679,23.0691967],[120.2108677,23.0693198],[120.2109856,23.0694322],[120.2112075,23.0696354],[120.2113591,23.0697693],[120.2115647,23.0698601],[120.2117002,23.0698942],[120.2117812,23.0698991],[120.2118279,23.069902],[120.2119937,23.0698921],[120.2121467,23.0698467],[120.2122918,23.069767],[120.2125495,23.0696849],[120.2127486,23.0696539],[120.2130001,23.0696626],[120.2132296,23.0696911],[120.213438,23.0698106],[120.2136156,23.0699396],[120.2137242,23.0700027],[120.2137915,23.070126],[120.2138367,23.0702611],[120.2138713,23.070448],[120.213874,23.0705559],[120.2138231,23.0708242],[120.2137949,23.0710382],[120.2137566,23.0714143],[120.2137556,23.0716211],[120.2137285,23.0719121],[120.2137189,23.0722189],[120.2137124,23.0727521],[120.2136951,23.0731656],[120.2137722,23.0731971],[120.2139516,23.0732819],[120.2139689,23.0732999],[120.214017,23.0733529],[120.2140602,23.0733921],[120.2140896,23.0734439],[120.2140939,23.0734607],[120.2141018,23.073491],[120.2141227,23.0735152],[120.2141536,23.0735349],[120.2142415,23.073571],[120.2143245,23.0736035],[120.2144584,23.0736364],[120.2145859,23.0736876],[120.2146865,23.0736882],[120.2147397,23.0737172],[120.2147917,23.0737255],[120.2148896,23.0737628],[120.2149962,23.0737863],[120.2150904,23.0738109],[120.2151412,23.0738284],[120.2152464,23.0738691],[120.2153518,23.073895],[120.2154187,23.0739137],[120.2155116,23.0739395],[120.2156096,23.0739607],[120.2156913,23.0739875],[120.2157731,23.0740109],[120.2158685,23.0740447],[120.2159528,23.0740566],[120.2161052,23.0741034],[120.2162279,23.0741408],[120.2162898,23.0741721],[120.2164013,23.0742094],[120.216519,23.0742457],[120.2166244,23.0742635],[120.2167198,23.074295],[120.2168328,23.0742876],[120.2169409,23.0742733],[120.2170167,23.0742507],[120.2171238,23.0742101],[120.2172072,23.0741658],[120.2172906,23.0741296],[120.2174101,23.0740775],[120.2174573,23.0740686],[120.2175456,23.0740507],[120.2176897,23.0740309],[120.2177642,23.0740359],[120.2178996,23.0740171],[120.2180226,23.0740063],[120.2181158,23.0739897],[120.218184,23.0739912],[120.2183617,23.073975],[120.2185244,23.0739553],[120.2186533,23.0739444],[120.2187083,23.0739396],[120.2187505,23.0739359],[120.2188896,23.0739229],[120.2190175,23.0739099],[120.2191516,23.0739037],[120.2192373,23.0739008],[120.2193354,23.0739002],[120.2194298,23.0738904],[120.2195527,23.0738922],[120.2196446,23.0738904],[120.2197427,23.0738841],[120.2198519,23.0738847],[120.2199451,23.0738703],[120.2200348,23.0738805],[120.2201275,23.0738863],[120.2202293,23.0738846],[120.2203224,23.0738839],[120.2204055,23.0738936],[120.220516,23.0738953],[120.2205841,23.073929],[120.2205749,23.0740023],[120.2205658,23.0740814],[120.2205554,23.0741571],[120.2205624,23.0742225],[120.2205708,23.0742719],[120.2205914,23.0743454],[120.2205997,23.074412],[120.2206056,23.0744614],[120.2206376,23.0744994],[120.2206509,23.0745683],[120.2206765,23.074635],[120.220711,23.0746822],[120.2207305,23.0747328],[120.2207761,23.0747915],[120.2208044,23.0748364],[120.2208238,23.0748985],[120.2208557,23.0749698],[120.2208776,23.0750364],[120.2209145,23.0750917],[120.2209502,23.0751446],[120.2209932,23.0752183],[120.2210201,23.0752815],[120.2210396,23.0753425],[120.2210572,23.0754157],[120.2212613,23.0754566],[120.2218337,23.0755973],[120.2221695,23.0756704],[120.2222871,23.0756705],[120.2223334,23.0756927],[120.2223904,23.0757194],[120.2224449,23.0757369],[120.222503,23.0757808],[120.2225412,23.0758189],[120.2225721,23.0758454],[120.2226652,23.0758425],[120.2227335,23.0758383],[120.2228242,23.0758354],[120.2229198,23.0758302],[120.2230191,23.0758273],[120.2230687,23.0758333],[120.2232029,23.075826],[120.2233521,23.075789],[120.2233887,23.0756906],[120.2234154,23.0755909],[120.2234382,23.0755062],[120.2234611,23.0754271],[120.2234939,23.0753321],[120.2235115,23.0752978],[120.2235369,23.0752096],[120.2235649,23.0751008],[120.2236043,23.0749519],[120.2236207,23.0749096],[120.2236635,23.0748123],[120.2236914,23.0747138],[120.2237382,23.0745741],[120.2237902,23.0744012],[120.22382,23.0744002],[120.2238548,23.0744015],[120.2239106,23.0744019],[120.2239285,23.0743217],[120.2239347,23.0742827],[120.2239427,23.0742323],[120.2239629,23.074183],[120.2240032,23.0740858],[120.2239947,23.0740571],[120.2240013,23.0739997],[120.224048,23.0738773],[120.2240811,23.0737432],[120.2241341,23.0735944],[120.2241484,23.0734913],[120.2241726,23.0734053],[120.2241779,23.0733324],[120.2243184,23.0729216],[120.2243442,23.0728234],[120.2243714,23.0727789],[120.2243985,23.0727516],[120.22446,23.0727192],[120.2245559,23.0726776],[120.2246944,23.0726542],[120.2248735,23.072627],[120.2250553,23.0726068],[120.225267,23.0725613],[120.2255107,23.0725086],[120.2256617,23.0724819],[120.2257555,23.0724572],[120.2258993,23.0724128],[120.2261209,23.0723779],[120.2262734,23.0723456],[120.2263839,23.072326],[120.226558,23.0723111],[120.2268565,23.0722852],[120.2270395,23.0722803],[120.2272295,23.0722635],[120.2274595,23.0722302],[120.2275939,23.0721986],[120.2277328,23.0721247],[120.2278305,23.0720133],[120.2279239,23.0718698],[120.2280921,23.0715715],[120.2282118,23.0714472],[120.2283269,23.0713448],[120.2285253,23.0712668],[120.2286846,23.0712112],[120.2288384,23.0711575],[120.2292387,23.0709842],[120.2296544,23.0708543],[120.2300033,23.0708274],[120.2302756,23.0708152],[120.2305396,23.0708225],[120.2309365,23.0708618],[120.2311658,23.0708718],[120.2315344,23.0708332],[120.2317678,23.0707823],[120.2320491,23.0707034],[120.2322868,23.0706007],[120.2326413,23.070429],[120.2327845,23.0703987],[120.2328616,23.0704185],[120.2330166,23.0704517],[120.2341715,23.0700243],[120.2348651,23.0697402],[120.2350543,23.0695899],[120.2352729,23.0692943],[120.2358613,23.0688304],[120.2362672,23.0684121],[120.2367408,23.0679765],[120.2373321,23.0674045],[120.2378342,23.0669651],[120.2378872,23.0669493],[120.2396311,23.0668911],[120.2406479,23.066947],[120.2410869,23.0665533],[120.2422968,23.0674763],[120.2423368,23.0675742],[120.2423309,23.0678338],[120.2423368,23.0678921],[120.2423342,23.0681494],[120.2423235,23.0688115],[120.2423146,23.070597],[120.2423161,23.0723909],[120.2423087,23.0728183],[120.2423146,23.0732473],[120.2422845,23.0739769],[120.2422146,23.0755261],[120.242069,23.0783944],[120.2418439,23.0783581],[120.2418367,23.0785388],[120.2419158,23.0785819],[120.2420716,23.0786264],[120.242163,23.0787087],[120.2422179,23.0788145],[120.2423551,23.0790368],[120.2425719,23.07927],[120.2427753,23.0795719],[120.2439672,23.0792844],[120.2450515,23.0789359],[120.2473795,23.078258],[120.2478259,23.0781535],[120.247824,23.07953],[120.2478241,23.0807317],[120.2478163,23.0819341],[120.2477806,23.0819717],[120.2474521,23.0821135],[120.2471839,23.0822094],[120.2468831,23.0824374],[120.2467655,23.0825095],[120.2466466,23.0825888],[120.2465874,23.0826541],[120.246501,23.0827553],[120.2464206,23.0828695],[120.2462886,23.0831096],[120.2462031,23.0833418],[120.2461962,23.083391],[120.2461966,23.0834145],[120.2462075,23.0835805],[120.246688,23.083512],[120.2469177,23.0834764],[120.2473027,23.0834532],[120.2475052,23.0834545],[120.2476572,23.0834692],[120.2478255,23.0834995],[120.2479256,23.0835275],[120.2481427,23.0836388],[120.2480785,23.0836759],[120.2479139,23.083766],[120.2478306,23.0838226],[120.2476186,23.0839848],[120.2473952,23.0841698],[120.2469516,23.0845204],[120.2469738,23.0845739],[120.2473132,23.0846387],[120.247486,23.08471],[120.2476627,23.084795],[120.2477747,23.0848819],[120.247876,23.0849943],[120.2480746,23.0852346],[120.2482337,23.0855014],[120.2483496,23.0857905],[120.2484054,23.0859939],[120.2484208,23.0860524],[120.2484426,23.0861534],[120.2484681,23.0862844],[120.2484871,23.0864496],[120.2485032,23.0865766],[120.2485102,23.0866272],[120.24852,23.0867282],[120.2485219,23.0869358],[120.2485046,23.0879245],[120.2485031,23.0880282],[120.2484864,23.0882592],[120.2484636,23.0884412],[120.248408,23.0887619],[120.2483626,23.0890878],[120.2483254,23.0892318],[120.2482882,23.0893829],[120.2482496,23.0895084],[120.2482179,23.0896073],[120.2481921,23.0896632],[120.2480485,23.0899933],[120.2478452,23.0903994],[120.2473993,23.0911297],[120.2473273,23.0913276],[120.2472326,23.0915803],[120.2471646,23.0918384],[120.2471107,23.0921011],[120.2470634,23.0925089],[120.2470603,23.0927405],[120.2470588,23.0929037],[120.2470797,23.0930377],[120.2471363,23.0933241],[120.2472561,23.0938933],[120.2473063,23.0940119],[120.2474403,23.0943361],[120.2475066,23.0944764],[120.2477692,23.0949981],[120.2480823,23.0957588],[120.2481889,23.0959693],[120.2482876,23.0961706],[120.2483848,23.0963917],[120.2484952,23.0966499],[120.2485253,23.0967191],[120.2486148,23.0967804],[120.2486906,23.0968879],[120.2487728,23.0970977],[120.2488661,23.0973528],[120.2488937,23.0975117],[120.2488875,23.0977975],[120.2488525,23.0978728],[120.2488236,23.0979614],[120.2487846,23.0980861],[120.2487597,23.0982446],[120.2486448,23.0985685],[120.2486456,23.0986476],[120.2487165,23.0986941],[120.2487121,23.0987536],[120.2485971,23.0990913],[120.2484543,23.0995056],[120.2484012,23.0995323],[120.2483025,23.0995245],[120.24819,23.099495],[120.2480582,23.0994638],[120.2479635,23.0994043],[120.2477316,23.0993489],[120.2475971,23.0993436],[120.247528,23.0993595],[120.2473364,23.0994391],[120.247191,23.0995215],[120.2470961,23.099614],[120.2469543,23.0997631],[120.2468877,23.0998357],[120.2468272,23.0999316],[120.2467747,23.1001331],[120.2467398,23.1003123],[120.2466437,23.1004013],[120.2464755,23.1004672],[120.2463057,23.1005477],[120.2461241,23.1006192],[120.245949,23.1007057],[120.2456329,23.1008487],[120.2455105,23.1008691],[120.2452044,23.1008763],[120.2448559,23.1008525],[120.2446015,23.1008537],[120.2445559,23.1009198],[120.2444578,23.1013582],[120.2444305,23.101453],[120.2443284,23.1017091],[120.244218,23.101959],[120.2440456,23.1023231],[120.2439365,23.1025926],[120.244055,23.1026624],[120.2449757,23.102984],[120.2459961,23.1033325],[120.2480191,23.1040384],[120.2481843,23.1041136],[120.2487069,23.1041851],[120.2491772,23.1042385],[120.2500883,23.1043368],[120.2507971,23.1044374],[120.2515038,23.1045464],[120.2515522,23.1045624],[120.25167,23.1046036],[120.2517286,23.1046417],[120.2518109,23.1046892],[120.2518835,23.1047646],[120.2519374,23.1048684],[120.25195,23.1049745],[120.2519709,23.1050916],[120.2520121,23.1051944],[120.2520755,23.1053224],[120.2521261,23.1054793],[120.2521669,23.1056812],[120.2521643,23.105797],[120.2521116,23.105953],[120.2519677,23.1062525],[120.2518128,23.1065178],[120.2517707,23.1065748],[120.2519665,23.1067422],[120.2521538,23.1068923],[120.2523407,23.1070293],[120.2526863,23.1072531],[120.252956,23.1074264],[120.2530551,23.1074632],[120.2533146,23.1075526],[120.2536641,23.1076401],[120.2547072,23.1077961],[120.2558082,23.1079653],[120.2573112,23.1081729],[120.2581054,23.1082928],[120.2589751,23.1084439],[120.2594407,23.1085338],[120.2601942,23.1088937],[120.2611875,23.1096175],[120.2616137,23.1099801],[120.2618125,23.1101916],[120.2619652,23.1104524],[120.262067,23.1107355],[120.2621942,23.1108898],[120.2629862,23.1114878],[120.2632232,23.1117645],[120.2633632,23.1121669],[120.2634893,23.1123912],[120.263395,23.1125295],[120.2634713,23.1126996],[120.2636479,23.1128523],[120.263993,23.1129971],[120.2644749,23.1131434],[120.2645735,23.113296],[120.2647814,23.1137829],[120.2649558,23.1142745],[120.2649908,23.1148784],[120.2650477,23.115169],[120.2651693,23.1154346],[120.2653904,23.116039],[120.2654675,23.1161551],[120.2656934,23.1162783],[120.2659081,23.1163109],[120.266545,23.1161877],[120.2668784,23.1162218],[120.2670384,23.1162831],[120.2672566,23.1164736],[120.2674188,23.1167917],[120.2675413,23.1173459],[120.267648,23.117596],[120.2678119,23.1177615],[120.2682324,23.1183727],[120.2683674,23.1186325],[120.268328,23.1188124],[120.2683634,23.1194501],[120.2683853,23.1197245],[120.268606,23.1201702],[120.2686127,23.1205279],[120.268723,23.1207663],[120.2689434,23.1210991],[120.2691008,23.1215377],[120.2692493,23.1221765],[120.2692335,23.1225656],[120.2691615,23.1226758],[120.2666295,23.1215462],[120.2661078,23.1213745],[120.2654653,23.1232257],[120.2652045,23.1237855],[120.2646701,23.1253886],[120.2643584,23.1253759],[120.2643393,23.1252169],[120.2641866,23.1248797],[120.2628825,23.1244662],[120.2610506,23.1300293],[120.2605451,23.1314248],[120.2598966,23.1307123],[120.2596582,23.1306493],[120.2595003,23.1316049],[120.2594455,23.1316589],[120.2576245,23.1314396],[120.2559386,23.1311979],[120.2560818,23.1327087],[120.2551784,23.1324543],[120.2551244,23.1327405],[120.2548912,23.1350258],[120.2545092,23.1349964],[120.2542587,23.1349642],[120.2523253,23.1344054],[120.2513217,23.1341533],[120.2500946,23.1336092]]]}}]}