{"type":"FeatureCollection","features":[{"type":"Feature","properties":{"name":"中榮里","area_km2":1.12,"road_m":{"main":0,"dist":2660,"local":0,"farm":1757,"lane":6341},"bbox":[120.237696,23.089493,120.248894,23.101453]},"geometry":{"type":"Polygon","coordinates":[[[120.238157,23.093782],[120.238328,23.095178],[120.238574,23.096827],[120.238699,23.097121],[120.238873,23.097366],[120.23904,23.097559],[120.239242,23.097761],[120.23947,23.09796],[120.23952,23.097996],[120.240708,23.09884],[120.240737,23.09886],[120.242353,23.099961],[120.242632,23.100151],[120.2444305,23.101453],[120.2444578,23.1013582],[120.2445559,23.1009198],[120.2446015,23.1008537],[120.2448559,23.1008525],[120.2452044,23.1008763],[120.2455105,23.1008691],[120.2456329,23.1008487],[120.245949,23.1007057],[120.2461241,23.1006192],[120.2463057,23.1005477],[120.2464755,23.1004672],[120.2466437,23.1004013],[120.2467398,23.1003123],[120.2467747,23.1001331],[120.2468272,23.0999316],[120.2468877,23.0998357],[120.2469543,23.0997631],[120.2470961,23.099614],[120.247191,23.0995215],[120.2473364,23.0994391],[120.247528,23.0993595],[120.2475971,23.0993436],[120.2477316,23.0993489],[120.2479635,23.0994043],[120.2480582,23.0994638],[120.24819,23.099495],[120.2483025,23.0995245],[120.2484012,23.0995323],[120.2484543,23.0995056],[120.2485971,23.0990913],[120.2487121,23.0987536],[120.2487165,23.0986941],[120.2486456,23.0986476],[120.2486448,23.0985685],[120.2487597,23.0982446],[120.2487846,23.0980861],[120.2488236,23.0979614],[120.2488525,23.0978728],[120.2488875,23.0977975],[120.2488937,23.0975117],[120.2488661,23.0973528],[120.2487728,23.0970977],[120.2486906,23.0968879],[120.2486148,23.0967804],[120.2485253,23.0967191],[120.2484952,23.0966499],[120.2483848,23.0963917],[120.2482876,23.0961706],[120.2481889,23.0959693],[120.2480823,23.0957588],[120.2477692,23.0949981],[120.2475066,23.0944764],[120.2474403,23.0943361],[120.2473063,23.0940119],[120.2472561,23.0938933],[120.2471363,23.0933241],[120.2470797,23.0930377],[120.2470588,23.0929037],[120.2470603,23.0927405],[120.2470634,23.0925089],[120.2471107,23.0921011],[120.2471646,23.0918384],[120.2472326,23.0915803],[120.2473273,23.0913276],[120.2473993,23.0911297],[120.2478452,23.0903994],[120.2480485,23.0899933],[120.2481921,23.0896632],[120.2482179,23.0896073],[120.2482496,23.0895084],[120.247654,23.089504],[120.247084,23.089509],[120.246934,23.089508],[120.246215,23.089505],[120.24378,23.089501],[120.242735,23.0895],[120.241972,23.089499],[120.2411,23.089504],[120.238568,23.089494],[120.238226,23.089493],[120.23819,23.089494],[120.237804,23.089504],[120.237696,23.089518],[120.237708,23.089605],[120.237705,23.089688],[120.237714,23.08978],[120.237919,23.091171],[120.238159,23.092789],[120.238174,23.092891],[120.238322,23.093904],[120.238157,23.093782]]]}},{"type":"Feature","properties":{"name":"中沙里","area_km2":1.44,"road_m":{"main":1819,"dist":0,"local":1326,"farm":1434,"lane":3171},"bbox":[120.199625,23.067722,120.216022,23.081302]},"geometry":{"type":"Polygon","coordinates":[[[120.2140939,23.0734607],[120.2140896,23.0734439],[120.2140602,23.0733921],[120.214017,23.0733529],[120.2139689,23.0732999],[120.2139516,23.0732819],[120.2137722,23.0731971],[120.2136951,23.0731656],[120.2137124,23.0727521],[120.2137189,23.0722189],[120.2137285,23.0719121],[120.2137556,23.0716211],[120.2137566,23.0714143],[120.2137949,23.0710382],[120.2138231,23.0708242],[120.213874,23.0705559],[120.2138713,23.070448],[120.2138367,23.0702611],[120.2137915,23.070126],[120.2137242,23.0700027],[120.2136156,23.0699396],[120.213438,23.0698106],[120.2132296,23.0696911],[120.2130001,23.0696626],[120.2127486,23.0696539],[120.2125495,23.0696849],[120.2122918,23.069767],[120.2121467,23.0698467],[120.2119937,23.0698921],[120.2118279,23.069902],[120.2117812,23.0698991],[120.2117002,23.0698942],[120.2115647,23.0698601],[120.2113591,23.0697693],[120.2112075,23.0696354],[120.2109856,23.0694322],[120.2108677,23.0693198],[120.210679,23.0691967],[120.2105119,23.0691101],[120.2102988,23.0690113],[120.2100967,23.0689033],[120.2098141,23.068795],[120.2096208,23.0686926],[120.2093581,23.0685932],[120.2091144,23.0685201],[120.2089918,23.0685203],[120.2087483,23.0685621],[120.208572,23.0686215],[120.2083153,23.0686944],[120.2081057,23.0687749],[120.2079296,23.0688214],[120.207771,23.068904],[120.2076088,23.0689178],[120.2073473,23.0688457],[120.2071599,23.0687646],[120.2070166,23.068723],[120.2068782,23.0686733],[120.2067114,23.0685597],[120.2065874,23.0687107],[120.2063197,23.06909],[120.2060312,23.0694844],[120.2057649,23.0698751],[120.2056582,23.0700236],[120.2056006,23.0700646],[120.2055122,23.0700417],[120.2053573,23.0698958],[120.205182,23.069795],[120.2050421,23.069658],[120.2049562,23.0695582],[120.2047613,23.0694726],[120.2046466,23.0694317],[120.2045217,23.0693795],[120.2043545,23.0692418],[120.2042547,23.0691295],[120.2039959,23.0689254],[120.2037367,23.0687017],[120.203432,23.0684925],[120.2030763,23.0682025],[120.2028642,23.0680482],[120.2026364,23.0679338],[120.2025016,23.0678662],[120.2022741,23.0677534],[120.202157,23.0677218],[120.2020952,23.0677353],[120.202117,23.0677809],[120.2021173,23.0678681],[120.2020679,23.0679595],[120.2016287,23.068541],[120.2011804,23.0691685],[120.2007671,23.0697461],[120.2002436,23.0704792],[120.2000075,23.0708189],[120.1997601,23.0711554],[120.1996272,23.0718186],[120.1996247,23.0718898],[120.1996937,23.0719405],[120.2005554,23.0726092],[120.2008909,23.0728744],[120.2011895,23.0731104],[120.201464,23.07333],[120.2023996,23.0740864],[120.202893,23.0744853],[120.2043992,23.0757082],[120.2055307,23.0766161],[120.2068303,23.077734],[120.2073452,23.0781832],[120.2073927,23.0782299],[120.2073268,23.0783303],[120.2072855,23.0783869],[120.207331,23.078707],[120.207358,23.078914],[120.207373,23.079301],[120.207389,23.079548],[120.207418,23.079784],[120.20743,23.079858],[120.207436,23.079891],[120.20748,23.080042],[120.207499,23.080146],[120.2075,23.080214],[120.207639,23.080234],[120.207907,23.080282],[120.208045,23.080308],[120.208126,23.080318],[120.208504,23.080365],[120.210725,23.080758],[120.210837,23.080892],[120.210838,23.080894],[120.210922,23.080958],[120.210949,23.080979],[120.211363,23.081302],[120.211583,23.081285],[120.212505,23.081213],[120.214449,23.081071],[120.214445,23.081031],[120.214373,23.080159],[120.214295,23.079222],[120.214305,23.079104],[120.214334,23.078834],[120.214307,23.078707],[120.214207,23.078617],[120.214065,23.078489],[120.214096,23.078485],[120.214114,23.078484],[120.214217,23.078479],[120.21438,23.078485],[120.214636,23.078508],[120.214968,23.078569],[120.215199,23.07863],[120.215928,23.077646],[120.216022,23.077519],[120.215987,23.077496],[120.215908,23.077443],[120.2157,23.077303],[120.21557,23.077141],[120.214313,23.074931],[120.214152,23.074602],[120.214122,23.074495],[120.214081,23.074287],[120.214035,23.074148],[120.214001,23.074037],[120.213927,23.073998],[120.213852,23.073958],[120.213847,23.073956],[120.213892,23.07386],[120.214043,23.07354],[120.2140939,23.0734607]]]}},{"type":"Feature","properties":{"name":"嘉同里","area_km2":3.99,"road_m":{"main":4288,"dist":1371,"local":708,"farm":25541,"lane":11877},"bbox":[120.211363,23.066553,120.247826,23.088979]},"geometry":{"type":"Polygon","coordinates":[[[120.2286846,23.0712112],[120.2285253,23.0712668],[120.2283269,23.0713448],[120.2282118,23.0714472],[120.2280921,23.0715715],[120.2279239,23.0718698],[120.2278305,23.0720133],[120.2277328,23.0721247],[120.2275939,23.0721986],[120.2274595,23.0722302],[120.2272295,23.0722635],[120.2270395,23.0722803],[120.2268565,23.0722852],[120.226558,23.0723111],[120.2263839,23.072326],[120.2262734,23.0723456],[120.2261209,23.0723779],[120.2258993,23.0724128],[120.2257555,23.0724572],[120.2256617,23.0724819],[120.2255107,23.0725086],[120.225267,23.0725613],[120.2250553,23.0726068],[120.2248735,23.072627],[120.2246944,23.0726542],[120.2245559,23.0726776],[120.22446,23.0727192],[120.2243985,23.0727516],[120.2243714,23.0727789],[120.2243442,23.0728234],[120.2243184,23.0729216],[120.2241779,23.0733324],[120.2241726,23.0734053],[120.2241484,23.0734913],[120.2241341,23.0735944],[120.2240811,23.0737432],[120.224048,23.0738773],[120.2240013,23.0739997],[120.2239947,23.0740571],[120.2240032,23.0740858],[120.2239629,23.074183],[120.2239427,23.0742323],[120.2239347,23.0742827],[120.2239285,23.0743217],[120.2239106,23.0744019],[120.2238548,23.0744015],[120.22382,23.0744002],[120.2237902,23.0744012],[120.2237382,23.0745741],[120.2236914,23.0747138],[120.2236635,23.0748123],[120.2236207,23.0749096],[120.2236043,23.0749519],[120.2235649,23.0751008],[120.2235369,23.0752096],[120.2235115,23.0752978],[120.2234939,23.0753321],[120.2234611,23.0754271],[120.2234382,23.0755062],[120.2234154,23.0755909],[120.2233887,23.0756906],[120.2233521,23.075789],[120.2232029,23.075826],[120.2230687,23.0758333],[120.2230191,23.0758273],[120.2229198,23.0758302],[120.2228242,23.0758354],[120.2227335,23.0758383],[120.2226652,23.0758425],[120.2225721,23.0758454],[120.2225412,23.0758189],[120.222503,23.0757808],[120.2224449,23.0757369],[120.2223904,23.0757194],[120.2223334,23.0756927],[120.2222871,23.0756705],[120.2221695,23.0756704],[120.2218337,23.0755973],[120.2212613,23.0754566],[120.2210572,23.0754157],[120.2210396,23.0753425],[120.2210201,23.0752815],[120.2209932,23.0752183],[120.2209502,23.0751446],[120.2209145,23.0750917],[120.2208776,23.0750364],[120.2208557,23.0749698],[120.2208238,23.0748985],[120.2208044,23.0748364],[120.2207761,23.0747915],[120.2207305,23.0747328],[120.220711,23.0746822],[120.2206765,23.074635],[120.2206509,23.0745683],[120.2206376,23.0744994],[120.2206056,23.0744614],[120.2205997,23.074412],[120.2205914,23.0743454],[120.2205708,23.0742719],[120.2205624,23.0742225],[120.2205554,23.0741571],[120.2205658,23.0740814],[120.2205749,23.0740023],[120.2205841,23.073929],[120.220516,23.0738953],[120.2204055,23.0738936],[120.2203224,23.0738839],[120.2202293,23.0738846],[120.2201275,23.0738863],[120.2200348,23.0738805],[120.2199451,23.0738703],[120.2198519,23.0738847],[120.2197427,23.0738841],[120.2196446,23.0738904],[120.2195527,23.0738922],[120.2194298,23.0738904],[120.2193354,23.0739002],[120.2192373,23.0739008],[120.2191516,23.0739037],[120.2190175,23.0739099],[120.2188896,23.0739229],[120.2187505,23.0739359],[120.2187083,23.0739396],[120.2186533,23.0739444],[120.2185244,23.0739553],[120.2183617,23.073975],[120.218184,23.0739912],[120.2181158,23.0739897],[120.2180226,23.0740063],[120.2178996,23.0740171],[120.2177642,23.0740359],[120.2176897,23.0740309],[120.2175456,23.0740507],[120.2174573,23.0740686],[120.2174101,23.0740775],[120.2172906,23.0741296],[120.2172072,23.0741658],[120.2171238,23.0742101],[120.2170167,23.0742507],[120.2169409,23.0742733],[120.2168328,23.0742876],[120.2167198,23.074295],[120.2166244,23.0742635],[120.216519,23.0742457],[120.2164013,23.0742094],[120.2162898,23.0741721],[120.2162279,23.0741408],[120.2161052,23.0741034],[120.2159528,23.0740566],[120.2158685,23.0740447],[120.2157731,23.0740109],[120.2156913,23.0739875],[120.2156096,23.0739607],[120.2155116,23.0739395],[120.2154187,23.0739137],[120.2153518,23.073895],[120.2152464,23.0738691],[120.2151412,23.0738284],[120.2150904,23.0738109],[120.2149962,23.0737863],[120.2148896,23.0737628],[120.2147917,23.0737255],[120.2147397,23.0737172],[120.2146865,23.0736882],[120.2145859,23.0736876],[120.2144584,23.0736364],[120.2143245,23.0736035],[120.2142415,23.073571],[120.2141536,23.0735349],[120.2141227,23.0735152],[120.2141018,23.073491],[120.2140939,23.0734607],[120.214043,23.07354],[120.213892,23.07386],[120.213847,23.073956],[120.213852,23.073958],[120.213927,23.073998],[120.214001,23.074037],[120.214035,23.074148],[120.214081,23.074287],[120.214122,23.074495],[120.214152,23.074602],[120.214313,23.074931],[120.21557,23.077141],[120.2157,23.077303],[120.215908,23.077443],[120.215987,23.077496],[120.216022,23.077519],[120.215928,23.077646],[120.215199,23.07863],[120.214968,23.078569],[120.214636,23.078508],[120.21438,23.078485],[120.214217,23.078479],[120.214114,23.078484],[120.214096,23.078485],[120.214065,23.078489],[120.214207,23.078617],[120.214307,23.078707],[120.214334,23.078834],[120.214305,23.079104],[120.214295,23.079222],[120.214373,23.080159],[120.214445,23.081031],[120.214449,23.081071],[120.212505,23.081213],[120.211583,23.081285],[120.211363,23.081302],[120.212323,23.082049],[120.212434,23.082136],[120.212476,23.082179],[120.212533,23.082261],[120.212651,23.082476],[120.21349,23.083964],[120.21406,23.084977],[120.214091,23.085031],[120.214092,23.085031],[120.214186,23.085005],[120.214811,23.084944],[120.215747,23.084853],[120.216682,23.084762],[120.216721,23.084758],[120.217003,23.084728],[120.218689,23.084581],[120.219038,23.088821],[120.219041,23.088857],[120.219054,23.088979],[120.219442,23.088862],[120.220961,23.088277],[120.220966,23.088276],[120.221113,23.088219],[120.221891,23.087868],[120.222214,23.087723],[120.222664,23.087476],[120.222807,23.087398],[120.223674,23.086895],[120.223758,23.086846],[120.224085,23.086656],[120.224441,23.08645],[120.225241,23.085934],[120.225972,23.085473],[120.226818,23.084939],[120.227606,23.084459],[120.228648,23.083824],[120.229268,23.083485],[120.230588,23.082804],[120.23098,23.082627],[120.232068,23.082166],[120.232661,23.081926],[120.232761,23.081886],[120.234205,23.081359],[120.235223,23.081059],[120.236379,23.08075],[120.237837,23.080404],[120.239221,23.080152],[120.241122,23.079923],[120.242104,23.079838],[120.244164,23.079717],[120.246032,23.079623],[120.247824,23.07953],[120.2478259,23.0781535],[120.2473795,23.078258],[120.2450515,23.0789359],[120.2439672,23.0792844],[120.2427753,23.0795719],[120.2425719,23.07927],[120.2423551,23.0790368],[120.2422179,23.0788145],[120.242163,23.0787087],[120.2420716,23.0786264],[120.2419158,23.0785819],[120.2418367,23.0785388],[120.2418439,23.0783581],[120.242069,23.0783944],[120.2422146,23.0755261],[120.2422845,23.0739769],[120.2423146,23.0732473],[120.2423087,23.0728183],[120.2423161,23.0723909],[120.2423146,23.070597],[120.2423235,23.0688115],[120.2423342,23.0681494],[120.2423368,23.0678921],[120.2423309,23.0678338],[120.2423368,23.0675742],[120.2422968,23.0674763],[120.2410869,23.0665533],[120.2406479,23.066947],[120.2396311,23.0668911],[120.2378872,23.0669493],[120.2378342,23.0669651],[120.2373321,23.0674045],[120.2367408,23.0679765],[120.2362672,23.0684121],[120.2358613,23.0688304],[120.2352729,23.0692943],[120.2350543,23.0695899],[120.2348651,23.0697402],[120.2341715,23.0700243],[120.2330166,23.0704517],[120.2328616,23.0704185],[120.2327845,23.0703987],[120.2326413,23.070429],[120.2322868,23.0706007],[120.2320491,23.0707034],[120.2317678,23.0707823],[120.2315344,23.0708332],[120.2311658,23.0708718],[120.2309365,23.0708618],[120.2305396,23.0708225],[120.2302756,23.0708152],[120.2300033,23.0708274],[120.2296544,23.0708543],[120.2292387,23.0709842],[120.2288384,23.0711575],[120.2286846,23.0712112]]]}},{"type":"Feature","properties":{"name":"安加里","area_km2":2.4,"road_m":{"main":2205,"dist":0,"local":0,"farm":12010,"lane":3881},"bbox":[120.226284,23.108138,120.245401,23.129103]},"geometry":{"type":"Polygon","coordinates":[[[120.2274123,23.1141298],[120.226284,23.115121],[120.226409,23.11521],[120.226462,23.115251],[120.227096,23.115738],[120.228498,23.116816],[120.228546,23.11766],[120.228575,23.118162],[120.228807,23.119348],[120.228867,23.119897],[120.229418,23.122401],[120.22928,23.123886],[120.2290992,23.125322],[120.2293618,23.1255751],[120.2304537,23.1263652],[120.2308712,23.1266414],[120.231642,23.1270782],[120.2331065,23.1277397],[120.2336461,23.1279838],[120.2346674,23.1284913],[120.2358364,23.1284142],[120.23662,23.1284399],[120.2377377,23.1288124],[120.2383387,23.1290129],[120.2384696,23.129103],[120.238738,23.128581],[120.240044,23.125802],[120.240003,23.125782],[120.239977,23.12577],[120.239921,23.125742],[120.239789,23.125665],[120.239414,23.125413],[120.238604,23.124863],[120.237838,23.124317],[120.237784,23.124276],[120.236995,23.123679],[120.237022,23.123518],[120.23705,23.123354],[120.237059,23.123297],[120.237058,23.123222],[120.236981,23.122836],[120.236973,23.122795],[120.236749,23.121984],[120.236645,23.121767],[120.236641,23.121757],[120.236583,23.121637],[120.236323,23.12092],[120.236222,23.120581],[120.236126,23.120258],[120.236118,23.120233],[120.236103,23.120183],[120.236076,23.120074],[120.23607,23.120028],[120.236062,23.119962],[120.235993,23.119522],[120.23624,23.119501],[120.236722,23.11946],[120.236997,23.119507],[120.237259,23.119513],[120.237412,23.119472],[120.237396,23.119122],[120.238275,23.119081],[120.239581,23.119019],[120.239578,23.118966],[120.239553,23.118284],[120.239537,23.118244],[120.239751,23.117646],[120.241232,23.118186],[120.24239,23.118595],[120.242998,23.11881],[120.243066,23.118643],[120.243474,23.117623],[120.243717,23.117017],[120.243834,23.116723],[120.244375,23.11523],[120.244376,23.115227],[120.244535,23.114789],[120.245002,23.113418],[120.245009,23.113397],[120.24501,23.113395],[120.245325,23.112501],[120.245401,23.112275],[120.245243,23.112225],[120.245208,23.112214],[120.240736,23.110921],[120.240706,23.110911],[120.240556,23.110861],[120.239875,23.110658],[120.239499,23.110545],[120.239351,23.110495],[120.239173,23.110425],[120.238751,23.110235],[120.238221,23.109998],[120.237721,23.109774],[120.237595,23.109712],[120.237247,23.10954],[120.236673,23.10929],[120.236666,23.109287],[120.235574,23.108787],[120.235463,23.108736],[120.235147,23.108603],[120.234449,23.108285],[120.234202,23.108177],[120.234114,23.108138],[120.234059,23.108241],[120.233942,23.108462],[120.233858,23.108592],[120.233727,23.108761],[120.233564,23.108942],[120.23334,23.109138],[120.233147,23.109306],[120.233042,23.109396],[120.232775,23.109625],[120.23239,23.109952],[120.232041,23.110249],[120.231974,23.110305],[120.23187,23.110412],[120.231847,23.110437],[120.231711,23.11061],[120.231639,23.110678],[120.231567,23.110747],[120.231466,23.110818],[120.231442,23.110832],[120.231333,23.110854],[120.231309,23.110865],[120.231216,23.110905],[120.231196,23.110917],[120.231084,23.111004],[120.230976,23.111087],[120.230907,23.111156],[120.230815,23.111251],[120.230797,23.111272],[120.230724,23.111371],[120.230649,23.111457],[120.230625,23.11148],[120.230489,23.111594],[120.230273,23.111773],[120.2295866,23.1123481],[120.228374,23.113341],[120.228024,23.113628],[120.227976,23.113667],[120.2274123,23.1141298]]]}},{"type":"Feature","properties":{"name":"安定里","area_km2":2.32,"road_m":{"main":1803,"dist":0,"local":0,"farm":16213,"lane":3017},"bbox":[120.235993,23.106549,120.263392,23.125802]},"geometry":{"type":"Polygon","coordinates":[[[120.2573112,23.1081729],[120.257347,23.108735],[120.2573489,23.1088008],[120.257351,23.108873],[120.257455,23.109169],[120.257469,23.109235],[120.257513,23.109438],[120.257563,23.110097],[120.258845,23.111309],[120.259055,23.111549],[120.259204,23.111809],[120.25927,23.111952],[120.259312,23.112022],[120.25944,23.112102],[120.259702,23.112241],[120.260438,23.112781],[120.260648,23.112873],[120.261079,23.113195],[120.261348,23.113531],[120.261495,23.113694],[120.261408,23.113793],[120.261346,23.113864],[120.261267,23.114015],[120.261287,23.114137],[120.261225,23.114372],[120.261206,23.114664],[120.261267,23.114713],[120.261591,23.114885],[120.261725,23.114985],[120.261757,23.115008],[120.261756,23.115073],[120.261721,23.115138],[120.26157,23.11523],[120.261536,23.115251],[120.261509,23.115307],[120.26152,23.115342],[120.261535,23.115389],[120.26157,23.115478],[120.26162,23.116006],[120.261672,23.116063],[120.261777,23.116096],[120.261935,23.116138],[120.262075,23.116228],[120.262083,23.116366],[120.262153,23.116455],[120.263392,23.117752],[120.262777,23.11894],[120.261983,23.118612],[120.261678,23.11874],[120.261325,23.11902],[120.261165,23.119324],[120.26062,23.119028],[120.260378,23.118806],[120.259057,23.118251],[120.256488,23.117088],[120.256493,23.117057],[120.256486,23.117035],[120.256482,23.117025],[120.256461,23.117002],[120.25643,23.116984],[120.255737,23.116689],[120.254971,23.116362],[120.253622,23.115813],[120.253265,23.115661],[120.252696,23.115407],[120.252362,23.115261],[120.252234,23.115193],[120.251878,23.114973],[120.251727,23.11488],[120.251715,23.114908],[120.251584,23.115168],[120.251507,23.115322],[120.251323,23.115672],[120.250429,23.117397],[120.249525,23.119124],[120.2487337,23.1206527],[120.2486864,23.1207442],[120.2486579,23.1207999],[120.248629,23.120855],[120.248411,23.121269],[120.248189,23.121691],[120.247946,23.122165],[120.247738,23.122571],[120.247301,23.123104],[120.2473,23.12329],[120.247307,23.123513],[120.247294,23.124066],[120.247292,23.124121],[120.247282,23.124175],[120.247262,23.124209],[120.247215,23.124272],[120.247195,23.124297],[120.247113,23.124398],[120.247074,23.124431],[120.246986,23.124747],[120.246918,23.124994],[120.24688,23.12513],[120.246863,23.125217],[120.246848,23.125294],[120.246828,23.125522],[120.246823,23.125546],[120.246802,23.125641],[120.246802,23.125654],[120.246746,23.125654],[120.246548,23.125652],[120.246273,23.125651],[120.245969,23.125646],[120.24528,23.125651],[120.24484,23.125648],[120.244603,23.125644],[120.244378,23.125628],[120.244024,23.125587],[120.243719,23.125542],[120.243592,23.125541],[120.243086,23.125563],[120.242639,23.125586],[120.242509,23.125585],[120.242369,23.125569],[120.24203,23.125491],[120.24172,23.125422],[120.241594,23.125415],[120.241211,23.125392],[120.240716,23.125349],[120.240577,23.125314],[120.240287,23.12524],[120.240225,23.125389],[120.240119,23.125641],[120.240106,23.125669],[120.240044,23.125802],[120.240003,23.125782],[120.239977,23.12577],[120.239921,23.125742],[120.239789,23.125665],[120.239414,23.125413],[120.238604,23.124863],[120.237838,23.124317],[120.237784,23.124276],[120.236995,23.123679],[120.237022,23.123518],[120.23705,23.123354],[120.237059,23.123297],[120.237058,23.123222],[120.236981,23.122836],[120.236973,23.122795],[120.236749,23.121984],[120.236645,23.121767],[120.236641,23.121757],[120.236583,23.121637],[120.236323,23.12092],[120.236222,23.120581],[120.236126,23.120258],[120.236118,23.120233],[120.236103,23.120183],[120.236076,23.120074],[120.23607,23.120028],[120.236062,23.119962],[120.235993,23.119522],[120.23624,23.119501],[120.236722,23.11946],[120.236997,23.119507],[120.237259,23.119513],[120.237412,23.119472],[120.237396,23.119122],[120.238275,23.119081],[120.239581,23.119019],[120.239578,23.118966],[120.239553,23.118284],[120.239537,23.118244],[120.239751,23.117646],[120.241232,23.118186],[120.24239,23.118595],[120.242998,23.11881],[120.243066,23.118643],[120.243474,23.117623],[120.243717,23.117017],[120.243834,23.116723],[120.244375,23.11523],[120.244376,23.115227],[120.244535,23.114789],[120.245002,23.113418],[120.245009,23.113397],[120.24501,23.113395],[120.245325,23.112501],[120.245401,23.112275],[120.245454,23.112291],[120.245549,23.112321],[120.245598,23.112337],[120.245839,23.112413],[120.248789,23.113372],[120.249115,23.112612],[120.249856,23.110836],[120.250612,23.109049],[120.251355,23.107279],[120.251653,23.106575],[120.251671,23.106549],[120.2517707,23.1065748],[120.2519665,23.1067422],[120.2521538,23.1068923],[120.2523407,23.1070293],[120.2526863,23.1072531],[120.252956,23.1074264],[120.2530551,23.1074632],[120.2533146,23.1075526],[120.2536641,23.1076401],[120.2547072,23.1077961],[120.2558082,23.1079653],[120.2573112,23.1081729]]]}},{"type":"Feature","properties":{"name":"文科里","area_km2":3.79,"road_m":{"main":0,"dist":3523,"local":0,"farm":18656,"lane":1466},"bbox":[120.211231,23.091157,120.231962,23.125322]},"geometry":{"type":"Polygon","coordinates":[[[120.231309,23.110865],[120.231216,23.110905],[120.231196,23.110917],[120.231084,23.111004],[120.230976,23.111087],[120.230907,23.111156],[120.230815,23.111251],[120.230797,23.111272],[120.230724,23.111371],[120.230649,23.111457],[120.230625,23.11148],[120.230489,23.111594],[120.230273,23.111773],[120.2295866,23.1123481],[120.228374,23.113341],[120.228024,23.113628],[120.227976,23.113667],[120.2274123,23.1141298],[120.226284,23.115121],[120.226409,23.11521],[120.226462,23.115251],[120.227096,23.115738],[120.228498,23.116816],[120.228546,23.11766],[120.228575,23.118162],[120.228807,23.119348],[120.228867,23.119897],[120.229418,23.122401],[120.22928,23.123886],[120.2290992,23.125322],[120.2271648,23.1238269],[120.2263169,23.1231715],[120.2217933,23.1197656],[120.2192192,23.1173494],[120.2172092,23.1157947],[120.2169775,23.1155965],[120.2164898,23.1153014],[120.2152894,23.1146709],[120.2143751,23.1141437],[120.213046,23.1133147],[120.2118005,23.1125327],[120.2112306,23.1121583],[120.2119346,23.1112944],[120.213411,23.109433],[120.214811,23.10763],[120.214871,23.107554],[120.215216,23.107049],[120.215596,23.106503],[120.216159,23.105695],[120.216359,23.105416],[120.216462,23.105272],[120.216862,23.104691],[120.217151,23.104271],[120.217172,23.104241],[120.217239,23.104165],[120.217248,23.104152],[120.217267,23.104122],[120.21731,23.104059],[120.21733,23.104024],[120.217354,23.103981],[120.217367,23.103933],[120.217371,23.103833],[120.21737,23.103683],[120.21737,23.103478],[120.217368,23.10288],[120.217369,23.102642],[120.21737,23.102557],[120.217371,23.102313],[120.217372,23.102066],[120.217374,23.101524],[120.217375,23.101383],[120.217376,23.100691],[120.217372,23.100512],[120.217366,23.100473],[120.21736,23.100456],[120.217334,23.100429],[120.2172601,23.1003596],[120.2172757,23.099139],[120.2172246,23.097676],[120.2171432,23.095209],[120.2170023,23.0913027],[120.21709,23.091299],[120.219223,23.091157],[120.2195683,23.0953342],[120.225493,23.096467],[120.225673,23.097143],[120.225861,23.097595],[120.225989,23.097898],[120.22623,23.098265],[120.22643,23.098514],[120.226765,23.098791],[120.227106,23.099205],[120.227974,23.100311],[120.229271,23.101942],[120.229425,23.102163],[120.229615,23.102468],[120.229745,23.102761],[120.229832,23.102943],[120.230055,23.103641],[120.230428,23.104805],[120.230506,23.105032],[120.23055,23.105127],[120.230605,23.105232],[120.230625,23.105261],[120.23067,23.105327],[120.230687,23.10535],[120.23073,23.105409],[120.230754,23.105458],[120.230755,23.105459],[120.230768,23.105554],[120.230793,23.105605],[120.230809,23.105628],[120.230866,23.105685],[120.231322,23.106142],[120.231473,23.106271],[120.231654,23.106425],[120.231874,23.106654],[120.231931,23.106713],[120.231962,23.106744],[120.231801,23.106806],[120.229859,23.107559],[120.229842,23.107566],[120.230368,23.108709],[120.231187,23.110531],[120.231257,23.11069],[120.231282,23.110781],[120.231309,23.110865]]]}},{"type":"Feature","properties":{"name":"新吉里","area_km2":3.13,"road_m":{"main":10542,"dist":1309,"local":3000,"farm":14640,"lane":13638},"bbox":[120.187395,23.077887,120.219223,23.092602]},"geometry":{"type":"Polygon","coordinates":[[[120.1971463,23.0926019],[120.19811,23.091734],[120.200075,23.08998],[120.200683,23.089459],[120.200726,23.089425],[120.200752,23.089413],[120.201767,23.089183],[120.20253,23.089018],[120.202572,23.089012],[120.202612,23.089022],[120.202635,23.089044],[120.203069,23.089991],[120.20317,23.089969],[120.203612,23.090012],[120.20388,23.09003],[120.204281,23.090057],[120.205016,23.090112],[120.20579,23.090157],[120.207767,23.090308],[120.207832,23.090313],[120.209731,23.09044],[120.210096,23.090464],[120.210084,23.090616],[120.210078,23.090694],[120.212296,23.090912],[120.21292,23.090978],[120.215771,23.091214],[120.216873,23.091301],[120.2170023,23.0913027],[120.21709,23.091299],[120.219223,23.091157],[120.219189,23.090725],[120.219068,23.089159],[120.219054,23.088979],[120.219041,23.088857],[120.219038,23.088821],[120.218689,23.084581],[120.217003,23.084728],[120.216721,23.084758],[120.216682,23.084762],[120.215747,23.084853],[120.214811,23.084944],[120.214186,23.085005],[120.214092,23.085031],[120.214091,23.085031],[120.21406,23.084977],[120.21349,23.083964],[120.212651,23.082476],[120.212533,23.082261],[120.212476,23.082179],[120.212434,23.082136],[120.212323,23.082049],[120.211363,23.081302],[120.210949,23.080979],[120.210922,23.080958],[120.210838,23.080894],[120.210837,23.080892],[120.210725,23.080758],[120.208504,23.080365],[120.208126,23.080318],[120.208045,23.080308],[120.207907,23.080282],[120.207639,23.080234],[120.2075,23.080214],[120.207499,23.080146],[120.20748,23.080042],[120.207436,23.079891],[120.20743,23.079858],[120.207418,23.079784],[120.207389,23.079548],[120.207373,23.079301],[120.207358,23.078914],[120.207331,23.078707],[120.2072855,23.0783869],[120.2072156,23.0784827],[120.2071617,23.0785486],[120.2059997,23.0784307],[120.2047801,23.0783891],[120.2038582,23.0783771],[120.2026797,23.0783477],[120.202467,23.0778868],[120.2019171,23.0780337],[120.2013826,23.0782286],[120.2005888,23.0785209],[120.2001737,23.0786449],[120.1996144,23.0787068],[120.1994611,23.0787494],[120.1992823,23.0788301],[120.1982203,23.0793083],[120.1975318,23.079594],[120.1966422,23.0799709],[120.1954449,23.0804284],[120.1943569,23.0807816],[120.1938165,23.0809647],[120.193186,23.0812745],[120.192493,23.0816038],[120.192203,23.0816829],[120.1921111,23.081708],[120.1913386,23.0817613],[120.1909262,23.0817807],[120.1903392,23.0819313],[120.1896095,23.0821966],[120.1886761,23.0825302],[120.1881283,23.0827608],[120.1878667,23.0828628],[120.1873947,23.0831284],[120.1925278,23.0881734],[120.1960317,23.0914957],[120.1971463,23.0926019]]]}},{"type":"Feature","properties":{"name":"海寮里","area_km2":3.43,"road_m":{"main":4471,"dist":878,"local":0,"farm":28835,"lane":1091},"bbox":[120.197146,23.089012,120.217376,23.112158]},"geometry":{"type":"Polygon","coordinates":[[[120.1971463,23.0926019],[120.1978504,23.0933007],[120.1980595,23.0935307],[120.1983552,23.0940736],[120.1993739,23.0955122],[120.1999054,23.0963279],[120.2002668,23.0969542],[120.2008786,23.0982308],[120.2010118,23.0985953],[120.2030625,23.0999137],[120.2030015,23.1002541],[120.2028,23.1064721],[120.2027614,23.1071833],[120.2047672,23.1085101],[120.2064564,23.1096274],[120.2081072,23.1107643],[120.2090257,23.1108221],[120.2095589,23.1111176],[120.2102526,23.11151],[120.2109715,23.1119758],[120.2111542,23.1121081],[120.2112306,23.1121583],[120.2119346,23.1112944],[120.213411,23.109433],[120.214811,23.10763],[120.214871,23.107554],[120.215216,23.107049],[120.215596,23.106503],[120.216159,23.105695],[120.216359,23.105416],[120.216462,23.105272],[120.216862,23.104691],[120.217151,23.104271],[120.217172,23.104241],[120.217239,23.104165],[120.217248,23.104152],[120.217267,23.104122],[120.21731,23.104059],[120.21733,23.104024],[120.217354,23.103981],[120.217367,23.103933],[120.217371,23.103833],[120.21737,23.103683],[120.21737,23.103478],[120.217368,23.10288],[120.217369,23.102642],[120.21737,23.102557],[120.217371,23.102313],[120.217372,23.102066],[120.217374,23.101524],[120.217375,23.101383],[120.217376,23.100691],[120.217372,23.100512],[120.217366,23.100473],[120.21736,23.100456],[120.217334,23.100429],[120.2172601,23.1003596],[120.2172757,23.099139],[120.2172246,23.097676],[120.2171432,23.095209],[120.2170023,23.0913027],[120.216873,23.091301],[120.215771,23.091214],[120.21292,23.090978],[120.212296,23.090912],[120.210078,23.090694],[120.210084,23.090616],[120.210096,23.090464],[120.209731,23.09044],[120.207832,23.090313],[120.207767,23.090308],[120.20579,23.090157],[120.205016,23.090112],[120.204281,23.090057],[120.20388,23.09003],[120.203612,23.090012],[120.20317,23.089969],[120.203069,23.089991],[120.202635,23.089044],[120.202612,23.089022],[120.202572,23.089012],[120.20253,23.089018],[120.201767,23.089183],[120.200752,23.089413],[120.200726,23.089425],[120.200683,23.089459],[120.200075,23.08998],[120.19811,23.091734],[120.1971463,23.0926019]]]}},{"type":"Feature","properties":{"name":"港南里","area_km2":2.61,"road_m":{"main":1336,"dist":2841,"local":0,"farm":12245,"lane":10864},"bbox":[120.219054,23.07953,120.248522,23.093904]},"geometry":{"type":"Polygon","coordinates":[[[120.2482496,23.0895084],[120.247654,23.089504],[120.247084,23.089509],[120.246934,23.089508],[120.246215,23.089505],[120.24378,23.089501],[120.242735,23.0895],[120.241972,23.089499],[120.2411,23.089504],[120.238568,23.089494],[120.238226,23.089493],[120.23819,23.089494],[120.237804,23.089504],[120.237696,23.089518],[120.237708,23.089605],[120.237705,23.089688],[120.237714,23.08978],[120.237919,23.091171],[120.238159,23.092789],[120.238174,23.092891],[120.238322,23.093904],[120.238157,23.093782],[120.237434,23.093249],[120.237061,23.092976],[120.236695,23.09271],[120.235934,23.092157],[120.2355,23.091851],[120.235456,23.091821],[120.235267,23.091468],[120.235185,23.091318],[120.234762,23.09054],[120.234692,23.090396],[120.234298,23.090519],[120.234138,23.090569],[120.233824,23.090683],[120.2337,23.090727],[120.2336155,23.0907693],[120.233483,23.09086],[120.233241,23.091055],[120.233058,23.091213],[120.233026,23.09124],[120.232896,23.091353],[120.23289,23.09136],[120.232824,23.091424],[120.232774,23.091478],[120.232709,23.091573],[120.232693,23.091604],[120.232603,23.091782],[120.232486,23.091714],[120.232466,23.091687],[120.232402,23.091601],[120.232312,23.091505],[120.232271,23.091478],[120.232188,23.091422],[120.232076,23.091352],[120.231869,23.091096],[120.231621,23.090836],[120.231379,23.090551],[120.230923,23.089956],[120.230741,23.089966],[120.229151,23.090052],[120.228179,23.090105],[120.22836,23.09211],[120.228364,23.092154],[120.226398,23.092296],[120.225876,23.092334],[120.225015,23.092402],[120.224235,23.092464],[120.224233,23.092436],[120.224097,23.090761],[120.223208,23.090852],[120.223079,23.090866],[120.222146,23.090949],[120.221161,23.09101],[120.219223,23.091157],[120.219189,23.090725],[120.219068,23.089159],[120.219054,23.088979],[120.219442,23.088862],[120.220961,23.088277],[120.220966,23.088276],[120.221113,23.088219],[120.221891,23.087868],[120.222214,23.087723],[120.222664,23.087476],[120.222807,23.087398],[120.223674,23.086895],[120.223758,23.086846],[120.224085,23.086656],[120.224441,23.08645],[120.225241,23.085934],[120.225972,23.085473],[120.226818,23.084939],[120.227606,23.084459],[120.228648,23.083824],[120.229268,23.083485],[120.230588,23.082804],[120.23098,23.082627],[120.232068,23.082166],[120.232661,23.081926],[120.232761,23.081886],[120.234205,23.081359],[120.235223,23.081059],[120.236379,23.08075],[120.237837,23.080404],[120.239221,23.080152],[120.241122,23.079923],[120.242104,23.079838],[120.244164,23.079717],[120.246032,23.079623],[120.247824,23.07953],[120.2478241,23.0807317],[120.2478163,23.0819341],[120.2477806,23.0819717],[120.2474521,23.0821135],[120.2471839,23.0822094],[120.2468831,23.0824374],[120.2467655,23.0825095],[120.2466466,23.0825888],[120.2465874,23.0826541],[120.246501,23.0827553],[120.2464206,23.0828695],[120.2462886,23.0831096],[120.2462031,23.0833418],[120.2461962,23.083391],[120.2461966,23.0834145],[120.2462075,23.0835805],[120.246688,23.083512],[120.2469177,23.0834764],[120.2473027,23.0834532],[120.2475052,23.0834545],[120.2476572,23.0834692],[120.2478255,23.0834995],[120.2479256,23.0835275],[120.2481427,23.0836388],[120.2480785,23.0836759],[120.2479139,23.083766],[120.2478306,23.0838226],[120.2476186,23.0839848],[120.2473952,23.0841698],[120.2469516,23.0845204],[120.2469738,23.0845739],[120.2473132,23.0846387],[120.247486,23.08471],[120.2476627,23.084795],[120.2477747,23.0848819],[120.247876,23.0849943],[120.2480746,23.0852346],[120.2482337,23.0855014],[120.2483496,23.0857905],[120.2484054,23.0859939],[120.2484208,23.0860524],[120.2484426,23.0861534],[120.2484681,23.0862844],[120.2484871,23.0864496],[120.2485032,23.0865766],[120.2485102,23.0866272],[120.24852,23.0867282],[120.2485219,23.0869358],[120.2485046,23.0879245],[120.2485031,23.0880282],[120.2484864,23.0882592],[120.2484636,23.0884412],[120.248408,23.0887619],[120.2483626,23.0890878],[120.2483254,23.0892318],[120.2482882,23.0893829],[120.2482496,23.0895084]]]}},{"type":"Feature","properties":{"name":"港口里","area_km2":1.4,"road_m":{"main":2400,"dist":3416,"local":0,"farm":6024,"lane":8052},"bbox":[120.219223,23.089956,120.242632,23.100151]},"geometry":{"type":"Polygon","coordinates":[[[120.238157,23.093782],[120.238328,23.095178],[120.238574,23.096827],[120.238699,23.097121],[120.238873,23.097366],[120.23904,23.097559],[120.239242,23.097761],[120.23947,23.09796],[120.23952,23.097996],[120.240708,23.09884],[120.240737,23.09886],[120.242353,23.099961],[120.242632,23.100151],[120.242385,23.100125],[120.24231,23.100117],[120.241099,23.099987],[120.240434,23.099919],[120.240254,23.099906],[120.240233,23.099904],[120.240198,23.099902],[120.240172,23.0999],[120.240018,23.09991],[120.239491,23.099917],[120.239333,23.099904],[120.238075,23.099656],[120.237302,23.0995],[120.237178,23.099472],[120.236956,23.099352],[120.236364,23.099062],[120.235926,23.098833],[120.235814,23.098774],[120.232546,23.098718],[120.230468,23.09869],[120.229603,23.098674],[120.229624,23.097428],[120.229062,23.097417],[120.229059,23.097228],[120.229044,23.09713],[120.228909,23.096961],[120.228135,23.097111],[120.226965,23.097526],[120.226141,23.097458],[120.225941,23.097556],[120.225861,23.097595],[120.225673,23.097143],[120.225493,23.096467],[120.2195683,23.0953342],[120.219223,23.091157],[120.221161,23.09101],[120.222146,23.090949],[120.223079,23.090866],[120.223208,23.090852],[120.224097,23.090761],[120.224233,23.092436],[120.224235,23.092464],[120.225015,23.092402],[120.225876,23.092334],[120.226398,23.092296],[120.228364,23.092154],[120.22836,23.09211],[120.228179,23.090105],[120.229151,23.090052],[120.230741,23.089966],[120.230923,23.089956],[120.231379,23.090551],[120.231621,23.090836],[120.231869,23.091096],[120.232076,23.091352],[120.232188,23.091422],[120.232271,23.091478],[120.232312,23.091505],[120.232402,23.091601],[120.232466,23.091687],[120.232486,23.091714],[120.232603,23.091782],[120.232693,23.091604],[120.232709,23.091573],[120.232774,23.091478],[120.232824,23.091424],[120.23289,23.09136],[120.232896,23.091353],[120.233026,23.09124],[120.233058,23.091213],[120.233241,23.091055],[120.233483,23.09086],[120.2336155,23.0907693],[120.2337,23.090727],[120.233824,23.090683],[120.234138,23.090569],[120.234298,23.090519],[120.234692,23.090396],[120.234762,23.09054],[120.235185,23.091318],[120.235267,23.091468],[120.235456,23.091821],[120.2355,23.091851],[120.235934,23.092157],[120.236695,23.09271],[120.237061,23.092976],[120.237434,23.093249],[120.238157,23.093782]]]}},{"type":"Feature","properties":{"name":"港尾里","area_km2":2.48,"road_m":{"main":2528,"dist":1591,"local":0,"farm":20056,"lane":602},"bbox":[120.225861,23.096961,120.252167,23.113372]},"geometry":{"type":"Polygon","coordinates":[[[120.2517707,23.1065748],[120.251671,23.106549],[120.251653,23.106575],[120.251355,23.107279],[120.250612,23.109049],[120.249856,23.110836],[120.249115,23.112612],[120.248789,23.113372],[120.245839,23.112413],[120.245598,23.112337],[120.245549,23.112321],[120.245454,23.112291],[120.245401,23.112275],[120.245243,23.112225],[120.245208,23.112214],[120.240736,23.110921],[120.240706,23.110911],[120.240556,23.110861],[120.239875,23.110658],[120.239499,23.110545],[120.239351,23.110495],[120.239173,23.110425],[120.238751,23.110235],[120.238221,23.109998],[120.237721,23.109774],[120.237595,23.109712],[120.237247,23.10954],[120.236673,23.10929],[120.236666,23.109287],[120.235574,23.108787],[120.235463,23.108736],[120.235147,23.108603],[120.234449,23.108285],[120.234202,23.108177],[120.234114,23.108138],[120.234059,23.108241],[120.233942,23.108462],[120.233858,23.108592],[120.233727,23.108761],[120.233564,23.108942],[120.23334,23.109138],[120.233147,23.109306],[120.233042,23.109396],[120.232775,23.109625],[120.23239,23.109952],[120.232041,23.110249],[120.231974,23.110305],[120.23187,23.110412],[120.231847,23.110437],[120.231711,23.11061],[120.231639,23.110678],[120.231567,23.110747],[120.231466,23.110818],[120.231442,23.110832],[120.231333,23.110854],[120.231309,23.110865],[120.231282,23.110781],[120.231257,23.11069],[120.231187,23.110531],[120.230368,23.108709],[120.229842,23.107566],[120.229859,23.107559],[120.231801,23.106806],[120.231962,23.106744],[120.231931,23.106713],[120.231874,23.106654],[120.231654,23.106425],[120.231473,23.106271],[120.231322,23.106142],[120.230866,23.105685],[120.230809,23.105628],[120.230793,23.105605],[120.230768,23.105554],[120.230755,23.105459],[120.230754,23.105458],[120.23073,23.105409],[120.230687,23.10535],[120.23067,23.105327],[120.230625,23.105261],[120.230605,23.105232],[120.23055,23.105127],[120.230506,23.105032],[120.230428,23.104805],[120.230055,23.103641],[120.229832,23.102943],[120.229745,23.102761],[120.229615,23.102468],[120.229425,23.102163],[120.229271,23.101942],[120.227974,23.100311],[120.227106,23.099205],[120.226765,23.098791],[120.22643,23.098514],[120.22623,23.098265],[120.225989,23.097898],[120.225861,23.097595],[120.225941,23.097556],[120.226141,23.097458],[120.226965,23.097526],[120.228135,23.097111],[120.228909,23.096961],[120.229044,23.09713],[120.229059,23.097228],[120.229062,23.097417],[120.229624,23.097428],[120.229603,23.098674],[120.230468,23.09869],[120.232546,23.098718],[120.235814,23.098774],[120.235926,23.098833],[120.236364,23.099062],[120.236956,23.099352],[120.237178,23.099472],[120.237302,23.0995],[120.238075,23.099656],[120.239333,23.099904],[120.239491,23.099917],[120.240018,23.09991],[120.240172,23.0999],[120.240198,23.099902],[120.240233,23.099904],[120.240254,23.099906],[120.240434,23.099919],[120.241099,23.099987],[120.24231,23.100117],[120.242385,23.100125],[120.242632,23.100151],[120.2444305,23.101453],[120.2443284,23.1017091],[120.244218,23.101959],[120.2440456,23.1023231],[120.2439365,23.1025926],[120.244055,23.1026624],[120.2449757,23.102984],[120.2459961,23.1033325],[120.2480191,23.1040384],[120.2481843,23.1041136],[120.2487069,23.1041851],[120.2491772,23.1042385],[120.2500883,23.1043368],[120.2507971,23.1044374],[120.2515038,23.1045464],[120.2515522,23.1045624],[120.25167,23.1046036],[120.2517286,23.1046417],[120.2518109,23.1046892],[120.2518835,23.1047646],[120.2519374,23.1048684],[120.25195,23.1049745],[120.2519709,23.1050916],[120.2520121,23.1051944],[120.2520755,23.1053224],[120.2521261,23.1054793],[120.2521669,23.1056812],[120.2521643,23.105797],[120.2521116,23.105953],[120.2519677,23.1062525],[120.2518128,23.1065178],[120.2517707,23.1065748]]]}},{"type":"Feature","properties":{"name":"蘇厝里","area_km2":1.45,"road_m":{"main":74,"dist":5461,"local":0,"farm":16380,"lane":2176},"bbox":[120.23847,23.11488,120.256493,23.133609]},"geometry":{"type":"Polygon","coordinates":[[[120.256488,23.117088],[120.256493,23.117057],[120.256486,23.117035],[120.256482,23.117025],[120.256461,23.117002],[120.25643,23.116984],[120.255737,23.116689],[120.254971,23.116362],[120.253622,23.115813],[120.253265,23.115661],[120.252696,23.115407],[120.252362,23.115261],[120.252234,23.115193],[120.251878,23.114973],[120.251727,23.11488],[120.251715,23.114908],[120.251584,23.115168],[120.251507,23.115322],[120.251323,23.115672],[120.250429,23.117397],[120.249525,23.119124],[120.2487337,23.1206527],[120.2486864,23.1207442],[120.2486579,23.1207999],[120.248629,23.120855],[120.248411,23.121269],[120.248189,23.121691],[120.247946,23.122165],[120.247738,23.122571],[120.247301,23.123104],[120.2473,23.12329],[120.247307,23.123513],[120.247294,23.124066],[120.247292,23.124121],[120.247282,23.124175],[120.247262,23.124209],[120.247215,23.124272],[120.247195,23.124297],[120.247113,23.124398],[120.247074,23.124431],[120.246986,23.124747],[120.246918,23.124994],[120.24688,23.12513],[120.246863,23.125217],[120.246848,23.125294],[120.246828,23.125522],[120.246823,23.125546],[120.246802,23.125641],[120.246802,23.125654],[120.246746,23.125654],[120.246548,23.125652],[120.246273,23.125651],[120.245969,23.125646],[120.24528,23.125651],[120.24484,23.125648],[120.244603,23.125644],[120.244378,23.125628],[120.244024,23.125587],[120.243719,23.125542],[120.243592,23.125541],[120.243086,23.125563],[120.242639,23.125586],[120.242509,23.125585],[120.242369,23.125569],[120.24203,23.125491],[120.24172,23.125422],[120.241594,23.125415],[120.241211,23.125392],[120.240716,23.125349],[120.240577,23.125314],[120.240287,23.12524],[120.240225,23.125389],[120.240119,23.125641],[120.240106,23.125669],[120.240044,23.125802],[120.238738,23.128581],[120.2384696,23.129103],[120.2392119,23.1296055],[120.2399318,23.1299825],[120.2411445,23.1305275],[120.2415283,23.1307183],[120.2416907,23.1307879],[120.2420347,23.1306706],[120.2431832,23.1308683],[120.24366,23.1309789],[120.2451322,23.1315275],[120.2458083,23.1316174],[120.2463511,23.1317394],[120.2467332,23.1318856],[120.2474462,23.1323047],[120.2489709,23.1329664],[120.2498476,23.1334997],[120.2500946,23.1336092],[120.250673,23.131867],[120.250676,23.131795],[120.250644,23.131718],[120.250607,23.131586],[120.250596,23.131488],[120.250596,23.131398],[120.250595,23.131373],[120.250614,23.131274],[120.250633,23.131175],[120.250655,23.130921],[120.250677,23.13075],[120.250679,23.130728],[120.250679,23.130699],[120.250676,23.130545],[120.250666,23.130497],[120.25068,23.130292],[120.250695,23.130052],[120.250707,23.129871],[120.25073,23.129513],[120.250769,23.128897],[120.250777,23.128772],[120.250812,23.128223],[120.250837,23.127824],[120.250824,23.127705],[120.250816,23.127632],[120.251045,23.127538],[120.25123,23.127472],[120.251384,23.127426],[120.251513,23.127387],[120.251653,23.127352],[120.251887,23.127292],[120.25213,23.12723],[120.252285,23.127188],[120.252357,23.127162],[120.252473,23.127122],[120.252583,23.127069],[120.252763,23.126207],[120.252448,23.126164],[120.251829,23.126079],[120.252278,23.125224],[120.25231,23.125161],[120.252705,23.124387],[120.252998,23.123814],[120.253694,23.1224754],[120.253897,23.122085],[120.254337,23.121238],[120.255238,23.119517],[120.256119,23.117792],[120.256487,23.117094],[120.256488,23.117088]]]}},{"type":"Feature","properties":{"name":"蘇林里","area_km2":2.34,"road_m":{"main":3431,"dist":3541,"local":3535,"farm":9592,"lane":3013},"bbox":[120.250095,23.108173,120.269249,23.135026]},"geometry":{"type":"Polygon","coordinates":[[[120.2691615,23.1226758],[120.2692335,23.1225656],[120.2692493,23.1221765],[120.2691008,23.1215377],[120.2689434,23.1210991],[120.268723,23.1207663],[120.2686127,23.1205279],[120.268606,23.1201702],[120.2683853,23.1197245],[120.2683634,23.1194501],[120.268328,23.1188124],[120.2683674,23.1186325],[120.2682324,23.1183727],[120.2678119,23.1177615],[120.267648,23.117596],[120.2675413,23.1173459],[120.2674188,23.1167917],[120.2672566,23.1164736],[120.2670384,23.1162831],[120.2668784,23.1162218],[120.266545,23.1161877],[120.2659081,23.1163109],[120.2656934,23.1162783],[120.2654675,23.1161551],[120.2653904,23.116039],[120.2651693,23.1154346],[120.2650477,23.115169],[120.2649908,23.1148784],[120.2649558,23.1142745],[120.2647814,23.1137829],[120.2645735,23.113296],[120.2644749,23.1131434],[120.263993,23.1129971],[120.2636479,23.1128523],[120.2634713,23.1126996],[120.263395,23.1125295],[120.2634893,23.1123912],[120.2633632,23.1121669],[120.2632232,23.1117645],[120.2629862,23.1114878],[120.2621942,23.1108898],[120.262067,23.1107355],[120.2619652,23.1104524],[120.2618125,23.1101916],[120.2616137,23.1099801],[120.2611875,23.1096175],[120.2601942,23.1088937],[120.2594407,23.1085338],[120.2589751,23.1084439],[120.2581054,23.1082928],[120.2573112,23.1081729],[120.257347,23.108735],[120.2573489,23.1088008],[120.257351,23.108873],[120.257455,23.109169],[120.257469,23.109235],[120.257513,23.109438],[120.257563,23.110097],[120.258845,23.111309],[120.259055,23.111549],[120.259204,23.111809],[120.25927,23.111952],[120.259312,23.112022],[120.25944,23.112102],[120.259702,23.112241],[120.260438,23.112781],[120.260648,23.112873],[120.261079,23.113195],[120.261348,23.113531],[120.261495,23.113694],[120.261408,23.113793],[120.261346,23.113864],[120.261267,23.114015],[120.261287,23.114137],[120.261225,23.114372],[120.261206,23.114664],[120.261267,23.114713],[120.261591,23.114885],[120.261725,23.114985],[120.261757,23.115008],[120.261756,23.115073],[120.261721,23.115138],[120.26157,23.11523],[120.261536,23.115251],[120.261509,23.115307],[120.26152,23.115342],[120.261535,23.115389],[120.26157,23.115478],[120.26162,23.116006],[120.261672,23.116063],[120.261777,23.116096],[120.261935,23.116138],[120.262075,23.116228],[120.262083,23.116366],[120.262153,23.116455],[120.263392,23.117752],[120.262777,23.11894],[120.261983,23.118612],[120.261678,23.11874],[120.261325,23.11902],[120.261165,23.119324],[120.26062,23.119028],[120.260378,23.118806],[120.259057,23.118251],[120.256488,23.117088],[120.256487,23.117094],[120.256119,23.117792],[120.255238,23.119517],[120.254337,23.121238],[120.253897,23.122085],[120.253694,23.1224754],[120.252998,23.123814],[120.252705,23.124387],[120.25231,23.125161],[120.252278,23.125224],[120.251829,23.126079],[120.252448,23.126164],[120.252763,23.126207],[120.252583,23.127069],[120.252473,23.127122],[120.252357,23.127162],[120.252285,23.127188],[120.25213,23.12723],[120.251887,23.127292],[120.251653,23.127352],[120.251513,23.127387],[120.251384,23.127426],[120.25123,23.127472],[120.251045,23.127538],[120.250816,23.127632],[120.250824,23.127705],[120.250837,23.127824],[120.250812,23.128223],[120.250777,23.128772],[120.250769,23.128897],[120.25073,23.129513],[120.250707,23.129871],[120.250695,23.130052],[120.25068,23.130292],[120.250666,23.130497],[120.250676,23.130545],[120.250679,23.130699],[120.250679,23.130728],[120.250677,23.13075],[120.250655,23.130921],[120.250633,23.131175],[120.250614,23.131274],[120.250595,23.131373],[120.250596,23.131398],[120.250596,23.131488],[120.250607,23.131586],[120.250644,23.131718],[120.250676,23.131795],[120.250673,23.131867],[120.2500946,23.1336092],[120.2513217,23.1341533],[120.2523253,23.1344054],[120.2542587,23.1349642],[120.2545092,23.1349964],[120.2548912,23.1350258],[120.2551244,23.1327405],[120.2551784,23.1324543],[120.2560818,23.1327087],[120.2559386,23.1311979],[120.2576245,23.1314396],[120.2594455,23.1316589],[120.2595003,23.1316049],[120.2596582,23.1306493],[120.2598966,23.1307123],[120.2605451,23.1314248],[120.2610506,23.1300293],[120.2628825,23.1244662],[120.2641866,23.1248797],[120.2643393,23.1252169],[120.2643584,23.1253759],[120.2646701,23.1253886],[120.2652045,23.1237855],[120.2654653,23.1232257],[120.2661078,23.1213745],[120.2666295,23.1215462],[120.2691615,23.1226758]]]}}]}